OBJECT_NAME,OBJECT_ID,EPOCH,MEAN_MOTION,ECCENTRICITY,INCLINATION,RA_OF_ASC_NODE,ARG_OF_PERICENTER,MEAN_ANOMALY,EPHEMERIS_TYPE,CLASSIFICATION_TYPE,NORAD_CAT_ID,ELEMENT_SET_NO,REV_AT_EPOCH,BSTAR,MEAN_MOTION_DOT,MEAN_MOTION_DDOT
SUOMI NPP,2011-061A,2026-07-21T14:19:14.482560,14.19523619,.00010739,98.7956,143.2390,185.7964,174.3200,0,U,37849,999,76332,.50148692E-4,.61E-6,0
YAOGAN-12,2011-066B,2026-07-21T14:36:08.428896,15.26929333,.00111109,97.1128,239.5622,102.8948,257.3534,0,U,37875,999,81729,.19571895E-3,.5114E-4,0
BEIDOU-2 M4,2012-018B,2026-07-19T21:00:44.744832,1.86229306,.00122384,55.6273,302.9841,272.0265,87.8661,0,U,38251,999,9655,0,-.99E-6,0
ARIRANG-3 (KOMPSAT-3),2012-025B,2026-07-21T14:09:19.067328,14.62232751,.00058174,98.1189,159.4605,21.2260,338.9182,0,U,38338,999,75637,.69765014E-4,.305E-5,0
HORYU-2,2012-025D,2026-07-21T07:51:20.733984,14.91249355,.00091612,98.2215,336.6718,74.7884,285.4346,0,U,38340,999,75381,.23110864E-3,.2239E-4,0
CSSWE,2012-048D,2026-07-21T15:43:27.920928,15.46225808,.00397695,64.6639,336.5770,163.0976,197.1499,0,U,38761,999,12172,.68104223E-3,.34619E-3,0
CP5,2012-048F,2026-07-21T13:22:29.734176,15.28398825,.00728532,64.6453,38.9420,164.8483,195.4853,0,U,38763,999,12201,.43646795E-3,.12916E-3,0
METOP-B,2012-049A,2026-07-21T14:39:27.040032,14.21447602,.0001346,98.6485,253.4198,221.8467,138.2608,0,U,38771,999,71815,.38850962E-4,.42E-6,0
SJ-9A,2012-056A,2026-07-21T14:01:57.818208,14.85537747,.00264907,97.6734,173.2982,141.3497,218.9621,0,U,38860,999,70469,.98579512E-4,.804E-5,0
COSMOS 2484 (RODNIK-S 6),2013-001C,2026-07-21T14:20:04.606656,12.42940078,.00253995,82.5005,200.4988,321.3616,38.5646,0,U,39059,999,61283,-.82059513E-3,-.104E-5,0
SARAL,2013-009A,2026-07-21T14:33:27.203904,14.32896877,.00020719,98.5560,28.7389,152.2432,207.8863,0,U,39086,999,70053,.33972541E-4,.49E-6,0
AAUSAT 3,2013-009B,2026-07-21T13:50:16.626048,14.39977088,.00126462,98.3714,25.5901,107.2367,253.0206,0,U,39087,999,70212,.15491547E-3,.445E-5,0
STRAND-1,2013-009E,2026-07-21T10:46:29.071776,14.37181358,.00096811,98.3940,21.8430,124.3743,235.8361,0,U,39090,999,70198,.78007345E-4,.189E-5,0
BRITE-AUSTRIA,2013-009F,2026-07-21T11:26:27.347424,14.36554203,.00110797,98.4014,21.0669,133.3553,226.8559,0,U,39091,999,70197,.52572133E-4,.112E-5,0
UNIBRITE,2013-009G,2026-07-21T10:08:13.381440,14.36425312,.00100537,98.4053,21.1331,129.8668,230.3404,0,U,39092,999,70190,.52312578E-4,.111E-5,0
AIST-2 (RS43),2013-015D,2026-07-21T14:04:56.921088,15.26607836,.00167076,64.8684,144.8201,248.7282,111.2065,0,U,39133,999,72915,.18620817E-3,.4705E-4,0
GAOFEN-1,2013-018A,2026-07-21T14:59:24.105984,14.76523192,.00176565,97.9076,273.9898,150.9869,209.2327,0,U,39150,999,71332,.80300278E-4,.51E-5,0
NEE-01 PEGASO,2013-018B,2026-07-21T11:54:12.278880,14.93810593,.0013511,98.1266,347.7913,55.4403,304.8089,0,U,39151,999,71582,.18805642E-3,.1936E-4,0
TURKSAT-3USAT,2013-018C,2026-07-21T12:22:19.193088,14.96609296,.00113129,97.7927,293.2023,351.8711,8.2325,0,U,39152,999,71622,.18915976E-3,.2098E-4,0
CUBEBUG-1 (CAPITAN BETO),2013-018D,2026-07-21T05:57:22.966272,14.97476668,.00118124,98.1693,3.7161,40.8400,319.3704,0,U,39153,999,71616,.17979138E-3,.2032E-4,0
PROBA-V,2013-021A,2026-07-21T04:58:18.291360,14.23604137,.00050224,98.3610,179.1385,45.8408,314.3184,0,U,39159,999,68595,.3572191E-4,.4E-6,0
ESTCUBE 1,2013-021C,2026-07-20T02:06:50.715936,14.81484751,.00066414,97.7275,254.1160,266.1864,93.8590,0,U,39161,999,70989,.10086264E-3,.74E-5,0
ARIRANG-5 (KOMPSAT-5),2013-042A,2026-07-21T16:24:51.073344,15.04503647,.0004436,97.6200,28.8995,38.7193,321.4351,0,U,39227,999,70904,.51219E-4,.656E-5,0
GONETS-M 5,2013-048A,2026-07-21T15:33:11.785248,12.42892696,.00175472,82.4858,321.8993,136.3174,223.9298,0,U,39249,999,58316,-.1031246E-4,.9E-7,0
GONETS-M 7,2013-048C,2026-07-21T14:38:57.181920,12.42915364,.00183371,82.4926,324.8629,137.5991,222.6509,0,U,39251,999,58311,-.3225992E-3,-.35E-6,0
FENGYUN 3C,2013-052A,2026-07-21T14:28:25.165056,14.15761748,.00134757,98.5005,174.9022,286.0849,73.8842,0,U,39260,999,66343,.55036526E-4,.67E-6,0
CASSIOPE,2013-055A,2026-07-21T13:43:14.489472,15.27633998,.02817896,80.9141,24.8665,306.2185,51.3290,0,U,39265,999,67291,.21294202E-3,.19864E-3,-.48157E-6
APRIZESAT 7,2013-066A,2026-07-21T07:11:27.877344,14.91628724,.00373473,97.7724,155.0337,97.8819,262.6641,0,U,39416,999,68631,.9092698E-4,.867E-5,0
ZACUBE-1 (TSHEPISOSAT),2013-066B,2026-07-20T20:47:42.553536,15.01347026,.00440791,97.7999,164.3670,137.0238,223.4444,0,U,39417,999,68578,.14536999E-3,.1847E-4,0
APRIZESAT 8,2013-066K,2026-07-21T07:25:55.380864,14.87702696,.00460219,97.8232,149.3054,171.7093,188.4894,0,U,39425,999,68474,.64446826E-4,.541E-5,0
