{"epoch":1784710044,"count":18256,"objects":[{"id":"37849","name":"NPP","type":"PAYLOAD","l1":"1 37849U 11061A   26202.59669540  .00000061  00000-0  50149-4 0  9996","l2":"2 37849  98.7956 143.2390 0001074 185.7964 174.3200 14.19523619763320"},{"id":"37875","name":"YAOGAN 12","type":"PAYLOAD","l1":"1 37875U 11066B   26202.60843089  .00005114  00000-0  19572-3 0  9992","l2":"2 37875  97.1128 239.5622 0011111 102.8948 257.3534 15.26929333817295"},{"id":"38251","name":"BEIDOU 13","type":"PAYLOAD","l1":"1 38251U 12018B   26200.87551788 -.00000099  00000-0  00000-0 0  9999","l2":"2 38251  55.6273 302.9841 0012238 272.0265  87.8661  1.86229306 96554"},{"id":"38338","name":"KOMPSAT 3","type":"PAYLOAD","l1":"1 38338U 12025B   26202.58980402  .00000305  00000-0  69765-4 0  9998","l2":"2 38338  98.1189 159.4605 0005817  21.2260 338.9182 14.62232751756372"},{"id":"38340","name":"HORYU 2","type":"PAYLOAD","l1":"1 38340U 12025D   26202.32732331  .00002239  00000-0  23111-3 0  9991","l2":"2 38340  98.2215 336.6718 0009161  74.7884 285.4346 14.91249355753815"},{"id":"38761","name":"CSSWE","type":"PAYLOAD","l1":"1 38761U 12048D   26202.65518427  .00034619  00000-0  68104-3 0  9995","l2":"2 38761  64.6639 336.5770 0039770 163.0976 197.1499 15.46225808121724"},{"id":"38763","name":"CP5","type":"PAYLOAD","l1":"1 38763U 12048F   26202.55728859  .00012916  00000-0  43647-3 0  9999","l2":"2 38763  64.6453  38.9420 0072853 164.8483 195.4853 15.28398825122014"},{"id":"38771","name":"METOP-B","type":"PAYLOAD","l1":"1 38771U 12049A   26202.61072963  .00000042  00000-0  38851-4 0  9993","l2":"2 38771  98.6485 253.4198 0001346 221.8467 138.2608 14.21447602718155"},{"id":"38860","name":"SJ-9A","type":"PAYLOAD","l1":"1 38860U 12056A   26202.58469697  .00000804  00000-0  98580-4 0  9991","l2":"2 38860  97.6734 173.2982 0026491 141.3497 218.9621 14.85537747704692"},{"id":"39059","name":"COSMOS 2484","type":"PAYLOAD","l1":"1 39059U 13001C   26202.59727554 -.00000104  00000-0 -82060-3 0  9993","l2":"2 39059  82.5005 200.4988 0025399 321.3616  38.5646 12.42940078612838"},{"id":"39086","name":"SARAL","type":"PAYLOAD","l1":"1 39086U 13009A   26202.60656486  .00000049  00000-0  33973-4 0  9994","l2":"2 39086  98.5560  28.7389 0002072 152.2432 207.8863 14.32896877700532"},{"id":"39087","name":"AAUSAT3","type":"PAYLOAD","l1":"1 39087U 13009B   26202.57658132  .00000445  00000-0  15492-3 0  9996","l2":"2 39087  98.3714  25.5901 0012646 107.2367 253.0206 14.39977088702124"},{"id":"39090","name":"STRAND 1","type":"PAYLOAD","l1":"1 39090U 13009E   26202.44894759  .00000189  00000-0  78007-4 0  9990","l2":"2 39090  98.3940  21.8430 0009681 124.3743 235.8361 14.37181358701986"},{"id":"39091","name":"BRITE-A TUGSAT-1","type":"PAYLOAD","l1":"1 39091U 13009F   26202.47670541  .00000112  00000-0  52572-4 0  9990","l2":"2 39091  98.4014  21.0669 0011080 133.3553 226.8559 14.36554203701971"},{"id":"39092","name":"BRITE-U UNIBRITE","type":"PAYLOAD","l1":"1 39092U 13009G   26202.42237710  .00000111  00000-0  52313-4 0  9995","l2":"2 39092  98.4053  21.1331 0010054 129.8668 230.3404 14.36425312701909"},{"id":"39133","name":"AIST 2","type":"PAYLOAD","l1":"1 39133U 13015D   26202.58676992  .00004705  00000-0  18621-3 0  9990","l2":"2 39133  64.8684 144.8201 0016708 248.7282 111.2065 15.26607836729156"},{"id":"39150","name":"GAOFEN 1","type":"PAYLOAD","l1":"1 39150U 13018A   26202.62458456  .00000510  00000-0  80300-4 0  9994","l2":"2 39150  97.9076 273.9898 0017656 150.9869 209.2327 14.76523192713328"},{"id":"39151","name":"NEE 01 PEGASUS","type":"PAYLOAD","l1":"1 39151U 13018B   26202.49597545  .00001936  00000-0  18806-3 0  9997","l2":"2 39151  98.1266 347.7913 0013511  55.4403 304.8089 14.93810593715827"},{"id":"39152","name":"TURKSAT 3U","type":"PAYLOAD","l1":"1 39152U 13018C   26202.51549992  .00002098  00000-0  18916-3 0  9996","l2":"2 39152  97.7927 293.2023 0011313 351.8711   8.2325 14.96609296716229"},{"id":"39153","name":"CUBEBUG 1","type":"PAYLOAD","l1":"1 39153U 13018D   26202.24818248  .00002032  00000-0  17979-3 0  9996","l2":"2 39153  98.1693   3.7161 0011812  40.8400 319.3704 14.97476668716162"},{"id":"39159","name":"PROBA V","type":"PAYLOAD","l1":"1 39159U 13021A   26202.20715615  .00000040  00000-0  35722-4 0  9990","l2":"2 39159  98.3610 179.1385 0005022  45.8408 314.3184 14.23604137685956"},{"id":"39161","name":"ESTCUBE 1","type":"PAYLOAD","l1":"1 39161U 13021C   26201.08808699  .00000740  00000-0  10086-3 0  9995","l2":"2 39161  97.7275 254.1160 0006641 266.1864  93.8590 14.81484751709898"},{"id":"39227","name":"KOMPSAT 5","type":"PAYLOAD","l1":"1 39227U 13042A   26202.68392446  .00000656  00000-0  51219-4 0  9996","l2":"2 39227  97.6200  28.8995 0004436  38.7193 321.4351 15.04503647709042"},{"id":"39249","name":"GONETS M 05","type":"PAYLOAD","l1":"1 39249U 13048A   26202.64805307  .00000009  00000-0 -10312-4 0  9999","l2":"2 39249  82.4858 321.8993 0017547 136.3174 223.9298 12.42892696583165"},{"id":"39251","name":"GONETS M 07","type":"PAYLOAD","l1":"1 39251U 13048C   26202.61038405 -.00000035  00000-0 -32260-3 0  9991","l2":"2 39251  82.4926 324.8629 0018337 137.5991 222.6509 12.42915364583115"},{"id":"39260","name":"FENGYUN 3C","type":"PAYLOAD","l1":"1 39260U 13052A   26202.60306904  .00000067  00000-0  55037-4 0  9998","l2":"2 39260  98.5005 174.9022 0013476 286.0849  73.8842 14.15761748663430"},{"id":"39265","name":"CASSIOPE","type":"PAYLOAD","l1":"1 39265U 13055A   26202.57169548  .00019864 -48157-6  21294-3 0  9997","l2":"2 39265  80.9141  24.8665 0281790 306.2185  51.3290 15.27633998672911"},{"id":"39416","name":"APRIZESAT 7","type":"PAYLOAD","l1":"1 39416U 13066A   26202.29962821  .00000867  00000-0  90927-4 0  9992","l2":"2 39416  97.7724 155.0337 0037347  97.8819 262.6641 14.91628724686316"},{"id":"39417","name":"ZACUBE","type":"PAYLOAD","l1":"1 39417U 13066B   26201.86646474  .00001847  00000-0  14537-3 0  9999","l2":"2 39417  97.7999 164.3670 0044079 137.0238 223.4444 15.01347026685787"},{"id":"39425","name":"APRIZESAT 8","type":"PAYLOAD","l1":"1 39425U 13066K   26202.30966876  .00000541  00000-0  64447-4 0  9995","l2":"2 39425  97.8232 149.3054 0046022 171.7093 188.4894 14.87702696684745"}]}